NORAD_CAT_ID,OBJECT_NAME,OBJECT_TYPE,EPOCH,MEAN_MOTION,ECCENTRICITY,INCLINATION,RA_OF_ASC_NODE,ARG_OF_PERICENTER,MEAN_ANOMALY,BSTAR,MEAN_MOTION_DOT,MEAN_MOTION_DDOT,TLE_LINE0,TLE_LINE1,TLE_LINE2,SEMIMAJOR_AXIS,PERIOD,APOGEE,PERIGEE,DECAYED
52871.0,STARLINK-4207,PAYLOAD,2024-05-08 17:52:19,15.0884451,0.000145,53.2168,141.6205,94.5801,265.5356,1.641e-05,-2.7e-07,0.0,0 STARLINK-4207,1 52871U 22062AT  24129.74466570 -.00000027  00000-0  16410-4 0  9998,2 52871  53.2168 141.6205 0001450  94.5801 265.5356 15.08844510104920,6917.867,95.437,540.735,538.729,0.0
52871.0,STARLINK-4207,PAYLOAD,2024-05-09 08:10:46,15.08847866,0.0001431,53.2165,138.9442,90.9019,269.2138,4.2992e-05,3.96e-06,0.0,0 STARLINK-4207,1 52871U 22062AT  24130.34082089  .00000396  00000-0  42992-4 0  9997,2 52871  53.2165 138.9442 0001431  90.9019 269.2138 15.08847866105500,6917.856,95.437,540.711,538.731,0.0
52871.0,STARLINK-4207,PAYLOAD,2024-05-09 17:43:05,15.08844765,0.0001485,53.217,137.1585,85.7795,274.3367,4.2278e-05,3.85e-06,0.0,0 STARLINK-4207,1 52871U 22062AT  24130.73826301  .00000385  00000-0  42278-4 0  9998,2 52871  53.2170 137.1585 0001485  85.7795 274.3367 15.08844765105075,6917.866,95.437,540.758,538.704,0.0
52871.0,STARLINK-4207,PAYLOAD,2024-05-10 04:50:48,15.08838657,0.0001402,53.2159,135.0765,87.3416,272.7737,0.00012027,1.627e-05,0.0,0 STARLINK-4207,1 52871U 22062AT  24131.20194580  .00001627  00000-0  12027-3 0  9996,2 52871  53.2159 135.0765 0001402  87.3416 272.7737 15.08838657105634,6917.884,95.438,540.719,538.78,0.0
52871.0,STARLINK-4207,PAYLOAD,2024-05-10 08:01:34,15.08841699,0.0001397,53.216,134.4818,87.3737,272.7415,0.00011027,1.468e-05,0.0,0 STARLINK-4207,1 52871U 22062AT  24131.33442443  .00001468  00000-0  11027-3 0  9996,2 52871  53.2160 134.4818 0001397  87.3737 272.7415 15.08841699105168,6917.875,95.437,540.707,538.774,0.0
52871.0,STARLINK-4207,PAYLOAD,2024-05-10 17:33:52,15.0884491,0.0001408,53.2163,132.6979,87.1902,272.9252,0.00012798,1.75e-05,0.0,0 STARLINK-4207,1 52871U 22062AT  24131.73186225  .00001750  00000-0  12798-3 0  9993,2 52871  53.2163 132.6979 0001408  87.1902 272.9252 15.08844910105221,6917.865,95.437,540.704,538.756,0.0
52871.0,STARLINK-4207,PAYLOAD,2024-05-11 04:41:34,15.08855168,0.0001446,53.2163,130.6165,87.0678,273.048,0.00017452,2.492e-05,0.0,0 STARLINK-4207,1 52871U 22062AT  24132.19553478  .00002492  00000-0  17452-3 0  9998,2 52871  53.2163 130.6165 0001446  87.0678 273.0480 15.08855168105780,6917.834,95.437,540.699,538.699,0.0
52871.0,STARLINK-4207,PAYLOAD,2024-05-11 17:24:39,15.08853857,0.0001264,53.2156,128.2386,90.6226,269.4911,0.00022301,3.264e-05,0.0,0 STARLINK-4207,1 52871U 22062AT  24132.72545295  .00003264  00000-0  22301-3 0  9992,2 52871  53.2156 128.2386 0001264  90.6226 269.4911 15.08853857105373,6917.838,95.437,540.577,538.829,0.0
52871.0,STARLINK-4207,PAYLOAD,2024-05-12 06:07:44,15.0883911,0.0001701,53.2155,125.8596,99.4752,260.6432,-4.8638e-05,-1.062e-05,0.0,0 STARLINK-4207,1 52871U 22062AT  24133.25537895 -.00001062  00000-0 -48638-4 0  9996,2 52871  53.2155 125.8596 0001701  99.4752 260.6432 15.08839110105945,6917.883,95.438,540.925,538.571,0.0
52871.0,STARLINK-4207,PAYLOAD,2024-05-13 05:58:33,15.08814403,0.0001565,53.2156,121.4,92.2529,267.8642,-0.00033714,-5.646e-05,0.0,0 STARLINK-4207,1 52871U 22062AT  24134.24900223 -.00005646  00000-0 -33714-3 0  9995,2 52871  53.2156 121.4000 0001565  92.2529 267.8642 15.08814403106096,6917.959,95.439,540.906,538.741,0.0
52871.0,STARLINK-4207,PAYLOAD,2024-05-14 05:49:19,15.08836423,0.000149,53.2174,116.9379,99.779,260.3371,0.00017235,2.456e-05,0.0,0 STARLINK-4207,1 52871U 22062AT  24135.24259246  .00002456  00000-0  17235-3 0  9992,2 52871  53.2174 116.9379 0001490  99.7790 260.3371 15.08836423106243,6917.891,95.438,540.787,538.726,0.0
52871.0,STARLINK-4207,PAYLOAD,2024-05-14 15:21:38,15.088393,0.0001436,53.2174,115.1542,97.832,262.2836,0.000162,2.291e-05,0.0,0 STARLINK-4207,1 52871U 22062AT  24135.64003228  .00002291  00000-0  16200-3 0  9991,2 52871  53.2174 115.1542 0001436  97.8320 262.2836 15.08839300105810,6917.883,95.438,540.741,538.754,0.0
52871.0,STARLINK-4207,PAYLOAD,2024-05-15 04:04:44,15.08836228,0.0001497,53.2174,112.7753,95.1673,264.949,0.00032355,4.865e-05,0.0,0 STARLINK-4207,1 52871U 22062AT  24136.16995429  .00004865  00000-0  32355-3 0  9990,2 52871  53.2174 112.7753 0001497  95.1673 264.9490 15.08836228105895,6917.892,95.438,540.793,538.721,0.0
52871.0,STARLINK-4207,PAYLOAD,2024-05-15 21:33:58,15.088494,0.000152,53.2172,109.504,92.3839,267.7327,4.5594e-05,4.38e-06,0.0,0 STARLINK-4207,1 52871U 22062AT  24136.89859396  .00000438  00000-0  45594-4 0  9994,2 52871  53.2172 109.5040 0001520  92.3839 267.7327 15.08849400106499,6917.852,95.437,540.768,538.665,0.0
52871.0,STARLINK-4207,PAYLOAD,2024-05-16 15:03:12,15.08848299,0.0001548,53.2169,106.2301,86.4143,273.7026,-7.4105e-06,-4.06e-06,0.0,0 STARLINK-4207,1 52871U 22062AT  24137.62723194 -.00000406  00000-0 -74105-5 0  9990,2 52871  53.2169 106.2301 0001548  86.4143 273.7026 15.08848299106118,6917.855,95.437,540.791,538.649,0.0
52871.0,STARLINK-4207,PAYLOAD,2024-05-17 03:46:18,15.08799859,0.000198,53.2175,103.8517,89.3232,270.7987,0.00077924,0.00012122,0.0,0 STARLINK-4207,1 52871U 22062AT  24138.15715682  .00012122  00000-0  77924-3 0  9998,2 52871  53.2175 103.8517 0001980  89.3232 270.7987 15.08799859106680,6918.003,95.44,541.238,538.498,0.0
52871.0,STARLINK-4207,PAYLOAD,2024-05-17 05:21:40,15.08856609,0.0001555,53.2175,103.5541,90.3059,269.8111,3.8674e-05,3.28e-06,0.0,0 STARLINK-4207,1 52871U 22062AT  24138.22338133  .00000328  00000-0  38674-4 0  9993,2 52871  53.2175 103.5541 0001555  90.3059 269.8111 15.08856609106697,6917.83,95.437,540.77,538.619,0.0
52871.0,STARLINK-4207,PAYLOAD,2024-05-17 21:15:33,15.08831021,0.0001989,53.2161,100.5836,63.2164,296.9032,-2.9436e-05,-7.57e-06,0.0,0 STARLINK-4207,1 52871U 22062AT  24138.88580068 -.00000757  00000-0 -29436-4 0  9995,2 52871  53.2161 100.5836 0001989  63.2164 296.9032 15.08831021106798,6917.908,95.438,541.149,538.397,0.0
52871.0,STARLINK-4207,PAYLOAD,2024-05-18 06:47:51,15.0884145,0.0001531,53.2179,98.7957,88.9645,271.1523,7.1956e-07,-2.77e-06,0.0,0 STARLINK-4207,1 52871U 22062AT  24139.28323343 -.00000277  00000-0  71956-6 0  9993,2 52871  53.2179  98.7957 0001531  88.9645 271.1523 15.08841450106854,6917.876,95.437,540.8,538.682,0.0
52871.0,STARLINK-4207,PAYLOAD,2024-05-18 14:44:47,15.08840679,0.0001674,53.2196,97.3092,92.4959,267.6225,3.0631e-05,1.99e-06,0.0,0 STARLINK-4207,1 52871U 22062AT  24139.61443333  .00000199  00000-0  30631-4 0  9997,2 52871  53.2196  97.3092 0001674  92.4959 267.6225 15.08840679106417,6917.878,95.438,540.901,538.585,0.0
52871.0,STARLINK-4207,PAYLOAD,2024-05-19 03:27:50,15.08854809,0.0001649,53.2188,94.93,94.8762,265.2418,0.00010949,1.456e-05,0.0,0 STARLINK-4207,1 52871U 22062AT  24140.14434014  .00001456  00000-0  10949-3 0  9999,2 52871  53.2188  94.9300 0001649  94.8762 265.2418 15.08854809106983,6917.835,95.437,540.841,538.559,0.0
52871.0,STARLINK-4207,PAYLOAD,2024-05-19 20:57:06,15.08829459,0.0001441,53.2136,91.6606,82.5592,277.5564,0.0001421,1.974e-05,0.0,0 STARLINK-4207,1 52871U 22062AT  24140.87299583  .00001974  00000-0  14210-3 0  9999,2 52871  53.2136  91.6606 0001441  82.5592 277.5564 15.08829459107098,6917.913,95.438,540.774,538.781,0.0
52871.0,STARLINK-4207,PAYLOAD,2024-05-20 03:18:39,15.08836952,0.0001324,53.2183,90.4708,83.2586,276.8557,5.0298e-05,5.13e-06,0.0,0 STARLINK-4207,1 52871U 22062AT  24141.13795648  .00000513  00000-0  50298-4 0  9997,2 52871  53.2183  90.4708 0001324  83.2586 276.8557 15.08836952106641,6917.89,95.438,540.671,538.839,0.0
52871.0,STARLINK-4207,PAYLOAD,2024-05-21 03:09:26,15.08839373,0.0001406,53.2187,86.0128,101.151,258.964,-0.00011566,-2.128e-05,0.0,0 STARLINK-4207,1 52871U 22062AT  24142.13156216 -.00002128  00000-0 -11566-3 0  9990,2 52871  53.2187  86.0128 0001406 101.1510 258.9640 15.08839373107285,6917.882,95.438,540.72,538.775,0.0
52871.0,STARLINK-4207,PAYLOAD,2024-05-22 06:10:59,15.08840782,0.0001308,53.2181,80.9535,108.1558,251.9577,0.000142,1.973e-05,0.0,0 STARLINK-4207,1 52871U 22062AT  24143.25763866  .00001973  00000-0  14200-3 0  9992,2 52871  53.2181  80.9535 0001308 108.1558 251.9577 15.08840782107451,6917.878,95.438,540.648,538.838,0.0
52871.0,STARLINK-4207,PAYLOAD,2024-05-23 04:26:24,15.08840306,0.0001419,53.2178,76.7915,98.5841,261.5312,0.00012863,1.76e-05,0.0,0 STARLINK-4207,1 52871U 22062AT  24144.18500412  .00001760  00000-0  12863-3 0  9998,2 52871  53.2178  76.7915 0001419  98.5841 261.5312 15.08840306107593,6917.879,95.438,540.726,538.763,0.0
52871.0,STARLINK-4207,PAYLOAD,2024-05-24 04:17:10,15.08859777,0.0001176,53.2177,72.3335,102.3532,257.7592,9.0866e-05,1.159e-05,0.0,0 STARLINK-4207,1 52871U 22062AT  24145.17859168  .00001159  00000-0  90866-4 0  9995,2 52871  53.2177  72.3335 0001176 102.3532 257.7592 15.08859777107747,6917.82,95.436,540.498,538.871,0.0
52871.0,STARLINK-4207,PAYLOAD,2024-05-24 18:35:40,15.08828914,0.0001077,53.2172,69.6556,101.1565,258.9548,-7.9296e-06,-4.14e-06,0.0,0 STARLINK-4207,1 52871U 22062AT  24145.77477433 -.00000414  00000-0 -79296-5 0  9992,2 52871  53.2172  69.6556 0001077 101.1565 258.9548 15.08828914107832,6917.914,95.438,540.524,539.034,0.0
52871.0,STARLINK-4207,PAYLOAD,2024-05-25 02:32:35,15.08837572,0.0001339,53.2172,68.1724,83.5737,276.5408,8.1373e-05,1.007e-05,0.0,0 STARLINK-4207,1 52871U 22062AT  24146.10596788  .00001007  00000-0  81373-4 0  9990,2 52871  53.2172  68.1724 0001339  83.5737 276.5408 15.08837572107884,6917.888,95.438,540.679,538.827,0.0
52871.0,STARLINK-4207,PAYLOAD,2024-05-25 12:04:54,15.08835819,0.000116,53.2186,66.3876,75.5934,284.5187,4.4044e-05,4.13e-06,0.0,0 STARLINK-4207,1 52871U 22062AT  24146.50340905  .00000413  00000-0  44044-4 0  9996,2 52871  53.2186  66.3876 0001160  75.5934 284.5187 15.08835819107457,6917.893,95.438,540.561,538.956,0.0
